{"type": "FeatureCollection", "features": [ {"type": "Feature", "properties": {"norad_id": 43058, "name": "GSAT0218 (GALILEO 22)", "group": "galileo", "lat": -6.492768963397956, "lon": 51.10309095884685, "alt_km": 23227.289540441445, "timestamp": "2025-12-15T20:48:54.146625+00:00", "meta": {"OBJECT_NAME": "GSAT0218 (GALILEO 22)", "OBJECT_ID": "2017-079D", "EPOCH": "2025-12-12T15:04:31.769472", "MEAN_MOTION": 1.70474063, "ECCENTRICITY": 0.00028411, "INCLINATION": 55.1287, "RA_OF_ASC_NODE": 226.6365, "ARG_OF_PERICENTER": 306.3289, "MEAN_ANOMALY": 53.7237, "EPHEMERIS_TYPE": 0, "CLASSIFICATION_TYPE": "U", "NORAD_CAT_ID": 43058, "ELEMENT_SET_NO": 999, "REV_AT_EPOCH": 4983, "BSTAR": 0, "MEAN_MOTION_DOT": 1.7e-07, "MEAN_MOTION_DDOT": 0}, "tle": {"line1": "1 43058U 17079D   25346.62814548  .00000017  00000+0  00000+0 0  9998", "line2": "2 43058  55.1287 226.6365 0002841 306.3289  53.7237  1.70474063 49839"}}, "geometry": {"type": "Point", "coordinates": [51.10309095884685, -6.492768963397956]}}, {"type": "Feature", "properties": {"norad_id": 43564, "name": "GSAT0221 (GALILEO 25)", "group": "galileo", "lat": -51.011768601674795, "lon": -140.52082964979965, "alt_km": 23211.52158559337, "timestamp": "2025-12-15T20:48:54.146636+00:00", "meta": {"OBJECT_NAME": "GSAT0221 (GALILEO 25)", "OBJECT_ID": "2018-060A", "EPOCH": "2025-12-13T16:53:40.160256", "MEAN_MOTION": 1.70475883, "ECCENTRICITY": 0.00067122, "INCLINATION": 57.2276, "RA_OF_ASC_NODE": 346.7914, "ARG_OF_PERICENTER": 283.6018, "MEAN_ANOMALY": 76.3423, "EPHEMERIS_TYPE": 0, "CLASSIFICATION_TYPE": "U", "NORAD_CAT_ID": 43564, "ELEMENT_SET_NO": 999, "REV_AT_EPOCH": 4600, "BSTAR": 0, "MEAN_MOTION_DOT": -8.5e-07, "MEAN_MOTION_DDOT": 0}, "tle": {"line1": "1 43564U 18060A   25347.70393704 -.00000085  00000+0  00000+0 0  9993", "line2": "2 43564  57.2276 346.7914 0006712 283.6018  76.3423  1.70475883 46009"}}, "geometry": {"type": "Point", "coordinates": [-140.52082964979965, -51.011768601674795]}}, {"type": "Feature", "properties": {"norad_id": 43565, "name": "GSAT0222 (GALILEO 26)", "group": "galileo", "lat": 50.69204131864748, "lon": 114.84240324246983, "alt_km": 23232.023673539934, "timestamp": "2025-12-15T20:48:54.146647+00:00", "meta": {"OBJECT_NAME": "GSAT0222 (GALILEO 26)", "OBJECT_ID": "2018-060B", "EPOCH": "2025-12-14T12:14:12.279840", "MEAN_MOTION": 1.70475606, "ECCENTRICITY": 0.00061133, "INCLINATION": 57.2308, "RA_OF_ASC_NODE": 346.7727, "ARG_OF_PERICENTER": 264.5011, "MEAN_ANOMALY": 95.4481, "EPHEMERIS_TYPE": 0, "CLASSIFICATION_TYPE": "U", "NORAD_CAT_ID": 43565, "ELEMENT_SET_NO": 999, "REV_AT_EPOCH": 4606, "BSTAR": 0, "MEAN_MOTION_DOT": -8.4e-07, "MEAN_MOTION_DDOT": 0}, "tle": {"line1": "1 43565U 18060B   25348.50986435 -.00000084  00000+0  00000+0 0  9991", "line2": "2 43565  57.2308 346.7727 0006113 264.5011  95.4481  1.70475606 46069"}}, "geometry": {"type": "Point", "coordinates": [114.84240324246983, 50.69204131864748]}}, {"type": "Feature", "properties": {"norad_id": 43566, "name": "GSAT0219 (GALILEO 23)", "group": "galileo", "lat": -18.885273047770088, "lon": -25.995333533051706, "alt_km": 23213.57977563542, "timestamp": "2025-12-15T20:48:54.146658+00:00", "meta": {"OBJECT_NAME": "GSAT0219 (GALILEO 23)", "OBJECT_ID": "2018-060C", "EPOCH": "2025-12-12T23:18:35.949024", "MEAN_MOTION": 1.70475808, "ECCENTRICITY": 0.00058128, "INCLINATION": 57.2304, "RA_OF_ASC_NODE": 346.8158, "ARG_OF_PERICENTER": 287.2893, "MEAN_ANOMALY": 72.6656, "EPHEMERIS_TYPE": 0, "CLASSIFICATION_TYPE": "U", "NORAD_CAT_ID": 43566, "ELEMENT_SET_NO": 999, "REV_AT_EPOCH": 4601, "BSTAR": 0, "MEAN_MOTION_DOT": -8.6e-07, "MEAN_MOTION_DDOT": 0}, "tle": {"line1": "1 43566U 18060C   25346.97124941 -.00000086  00000+0  00000+0 0  9999", "line2": "2 43566  57.2304 346.8158 0005812 287.2893  72.6656  1.70475808 46010"}}, "geometry": {"type": "Point", "coordinates": [-25.995333533051706, -18.885273047770088]}}, {"type": "Feature", "properties": {"norad_id": 43567, "name": "GSAT0220 (GALILEO 24)", "group": "galileo", "lat": -18.09768837415785, "lon": 178.89007840079424, "alt_km": 23222.566595777163, "timestamp": "2025-12-15T20:48:54.146669+00:00", "meta": {"OBJECT_NAME": "GSAT0220 (GALILEO 24)", "OBJECT_ID": "2018-060D", "EPOCH": "2025-12-13T18:41:25.404000", "MEAN_MOTION": 1.70475925, "ECCENTRICITY": 0.00061008, "INCLINATION": 57.2299, "RA_OF_ASC_NODE": 346.7937, "ARG_OF_PERICENTER": 285.541, "MEAN_ANOMALY": 74.4106, "EPHEMERIS_TYPE": 0, "CLASSIFICATION_TYPE": "U", "NORAD_CAT_ID": 43567, "ELEMENT_SET_NO": 999, "REV_AT_EPOCH": 4601, "BSTAR": 0, "MEAN_MOTION_DOT": -8.5e-07, "MEAN_MOTION_DDOT": 0}, "tle": {"line1": "1 43567U 18060D   25347.77876625 -.00000085  00000+0  00000+0 0  9991", "line2": "2 43567  57.2299 346.7937 0006100 285.5410  74.4106  1.70475925 46015"}}, "geometry": {"type": "Point", "coordinates": [178.89007840079424, -18.09768837415785]}}, {"type": "Feature", "properties": {"norad_id": 49809, "name": "GSAT0223 (GALILEO 27)", "group": "galileo", "lat": -50.943273337207025, "lon": -65.96264067795339, "alt_km": 23217.24783111486, "timestamp": "2025-12-15T20:48:54.146681+00:00", "meta": {"OBJECT_NAME": "GSAT0223 (GALILEO 27)", "OBJECT_ID": "2021-116A", "EPOCH": "2025-12-10T02:39:25.687008", "MEAN_MOTION": 1.70475768, "ECCENTRICITY": 0.000463, "INCLINATION": 57.2198, "RA_OF_ASC_NODE": 346.7831, "ARG_OF_PERICENTER": 251.6037, "MEAN_ANOMALY": 107.9349, "EPHEMERIS_TYPE": 0, "CLASSIFICATION_TYPE": "U", "NORAD_CAT_ID": 49809, "ELEMENT_SET_NO": 999, "REV_AT_EPOCH": 2495, "BSTAR": 0, "MEAN_MOTION_DOT": -8.7e-07, "MEAN_MOTION_DDOT": 0}, "tle": {"line1": "1 49809U 21116A   25344.11071397 -.00000087  00000+0  00000+0 0  9992", "line2": "2 49809  57.2198 346.7831 0004630 251.6037 107.9349  1.70475768 24951"}}, "geometry": {"type": "Point", "coordinates": [-65.96264067795339, -50.943273337207025]}}, {"type": "Feature", "properties": {"norad_id": 49810, "name": "GSAT0224 (GALILEO 28)", "group": "galileo", "lat": 36.53016626517131, "lon": 15.141897200751368, "alt_km": 23227.292730864967, "timestamp": "2025-12-15T20:48:54.146692+00:00", "meta": {"OBJECT_NAME": "GSAT0224 (GALILEO 28)", "OBJECT_ID": "2021-116B", "EPOCH": "2025-12-14T00:56:09.559392", "MEAN_MOTION": 1.70476108, "ECCENTRICITY": 0.00038616, "INCLINATION": 57.22, "RA_OF_ASC_NODE": 346.6758, "ARG_OF_PERICENTER": 256.6425, "MEAN_ANOMALY": 106.3645, "EPHEMERIS_TYPE": 0, "CLASSIFICATION_TYPE": "U", "NORAD_CAT_ID": 49810, "ELEMENT_SET_NO": 999, "REV_AT_EPOCH": 2505, "BSTAR": 0, "MEAN_MOTION_DOT": -8.5e-07, "MEAN_MOTION_DDOT": 0}, "tle": {"line1": "1 49810U 21116B   25348.03899953 -.00000085  00000+0  00000+0 0  9993", "line2": "2 49810  57.2200 346.6758 0003861 256.6425 106.3645  1.70476108 25058"}}, "geometry": {"type": "Point", "coordinates": [15.141897200751368, 36.53016626517131]}}, {"type": "Feature", "properties": {"norad_id": 59598, "name": "GSAT0225 (GALILEO 29)", "group": "galileo", "lat": 29.986089369459602, "lon": 130.01392419233525, "alt_km": 23223.223683364384, "timestamp": "2025-12-15T20:48:54.146703+00:00", "meta": {"OBJECT_NAME": "GSAT0225 (GALILEO 29)", "OBJECT_ID": "2024-079A", "EPOCH": "2025-12-13T14:17:14.853120", "MEAN_MOTION": 1.7047497, "ECCENTRICITY": 0.00020845, "INCLINATION": 55.0023, "RA_OF_ASC_NODE": 106.2711, "ARG_OF_PERICENTER": 178.8578, "MEAN_ANOMALY": 264.3288, "EPHEMERIS_TYPE": 0, "CLASSIFICATION_TYPE": "U", "NORAD_CAT_ID": 59598, "ELEMENT_SET_NO": 999, "REV_AT_EPOCH": 1015, "BSTAR": 0, "MEAN_MOTION_DOT": -1e-08, "MEAN_MOTION_DDOT": 0}, "tle": {"line1": "1 59598U 24079A   25347.59531080 -.00000001  00000+0  00000+0 0  9990", "line2": "2 59598  55.0023 106.2711 0002084 178.8578 264.3288  1.70474970 10158"}}, "geometry": {"type": "Point", "coordinates": [130.01392419233525, 29.986089369459602]}}, {"type": "Feature", "properties": {"norad_id": 59600, "name": "GSAT0227 (GALILEO 30)", "group": "galileo", "lat": -52.27861637506406, "lon": 41.364728283179105, "alt_km": 23237.343726755316, "timestamp": "2025-12-15T20:48:54.146714+00:00", "meta": {"OBJECT_NAME": "GSAT0227 (GALILEO 30)", "OBJECT_ID": "2024-079C", "EPOCH": "2025-12-08T22:48:42.234912", "MEAN_MOTION": 1.70474719, "ECCENTRICITY": 0.0003262, "INCLINATION": 54.9946, "RA_OF_ASC_NODE": 106.4003, "ARG_OF_PERICENTER": 114.182, "MEAN_ANOMALY": 245.816, "EPHEMERIS_TYPE": 0, "CLASSIFICATION_TYPE": "U", "NORAD_CAT_ID": 59600, "ELEMENT_SET_NO": 999, "REV_AT_EPOCH": 1012, "BSTAR": 0, "MEAN_MOTION_DOT": 9e-08, "MEAN_MOTION_DDOT": 0}, "tle": {"line1": "1 59600U 24079C   25342.95048883  .00000009  00000+0  00000+0 0  9990", "line2": "2 59600  54.9946 106.4003 0003262 114.1820 245.8160  1.70474719 10123"}}, "geometry": {"type": "Point", "coordinates": [41.364728283179105, -52.27861637506406]}}, {"type": "Feature", "properties": {"norad_id": 61182, "name": "GSAT0232 (GALILEO 32)", "group": "galileo", "lat": 45.67300593649305, "lon": 1.0969846668614427, "alt_km": 23217.003122001075, "timestamp": "2025-12-15T20:48:54.146726+00:00", "meta": {"OBJECT_NAME": "GSAT0232 (GALILEO 32)", "OBJECT_ID": "2024-167A", "EPOCH": "2025-12-12T10:51:18.741600", "MEAN_MOTION": 1.70473504, "ECCENTRICITY": 0.00019431, "INCLINATION": 55.2408, "RA_OF_ASC_NODE": 226.4386, "ARG_OF_PERICENTER": 211.6313, "MEAN_ANOMALY": 332.0573, "EPHEMERIS_TYPE": 0, "CLASSIFICATION_TYPE": "U", "NORAD_CAT_ID": 61182, "ELEMENT_SET_NO": 999, "REV_AT_EPOCH": 769, "BSTAR": 0, "MEAN_MOTION_DOT": 1.6e-07, "MEAN_MOTION_DDOT": 0}, "tle": {"line1": "1 61182U 24167A   25346.45230025  .00000016  00000+0  00000+0 0  9994", "line2": "2 61182  55.2408 226.4386 0001943 211.6313 332.0573  1.70473504  7695"}}, "geometry": {"type": "Point", "coordinates": [1.0969846668614427, 45.67300593649305]}}]}